[{"OBJECT_NAME":"STARLINK-2153","OBJECT_ID":"2021-024AJ","EPOCH":"2026-03-09T22:23:49.519392","MEAN_MOTION":15.30179306,"ECCENTRICITY":0.0001512,"INCLINATION":53.1593,"RA_OF_ASC_NODE":308.2664,"ARG_OF_PERICENTER":112.0172,"MEAN_ANOMALY":248.0989,"EPHEMERIS_TYPE":0,"CLASSIFICATION_TYPE":"U","NORAD_CAT_ID":48009,"ELEMENT_SET_NO":999,"REV_AT_EPOCH":27493,"BSTAR":3.4639663e-5,"MEAN_MOTION_DOT":6.66e-6,"MEAN_MOTION_DDOT":0},{"OBJECT_NAME":"FENGYUN 1C DEB","OBJECT_ID":"1999-025ETT","EPOCH":"2026-03-07T08:30:03.670560","MEAN_MOTION":15.28888299,"ECCENTRICITY":0.00158464,"INCLINATION":99.1103,"RA_OF_ASC_NODE":112.0072,"ARG_OF_PERICENTER":201.0032,"MEAN_ANOMALY":159.0553,"EPHEMERIS_TYPE":0,"CLASSIFICATION_TYPE":"U","NORAD_CAT_ID":38726,"ELEMENT_SET_NO":999,"REV_AT_EPOCH":71135,"BSTAR":0.013792546,"MEAN_MOTION_DOT":0.00409659,"MEAN_MOTION_DDOT":0}]
